{"type": "FeatureCollection", "features": [{"type": "Feature", "properties": {"norad_id": 50032, "name": "COSMOS 1408 DEB", "group": "cosmos-1408-debris", "lat": -42.41001094764094, "lon": 55.07223891150845, "alt_km": 437.19477324506715, "timestamp": "2025-12-09T09:46:47.915864+00:00", "meta": {"OBJECT_NAME": "COSMOS 1408 DEB", "OBJECT_ID": "1982-092RU", "EPOCH": "2025-12-08T23:05:19.988160", "MEAN_MOTION": 15.456342, "ECCENTRICITY": 0.0014933, "INCLINATION": 82.5642, "RA_OF_ASC_NODE": 62.3805, "ARG_OF_PERICENTER": 223.1585, "MEAN_ANOMALY": 136.8494, "EPHEMERIS_TYPE": 0, "CLASSIFICATION_TYPE": "U", "NORAD_CAT_ID": 50032, "ELEMENT_SET_NO": 999, "REV_AT_EPOCH": 22545, "BSTAR": 0.00013893, "MEAN_MOTION_DOT": 6.758e-05, "MEAN_MOTION_DDOT": 0}, "tle": {"line1": "1 50032U 82092RU  25342.96203690  .00006758  00000+0  13893-3 0  9994", "line2": "2 50032  82.5642  62.3805 0014933 223.1585 136.8494 15.45634200225452"}}, "geometry": {"type": "Point", "coordinates": [55.07223891150845, -42.41001094764094]}}, {"type": "Feature", "properties": {"norad_id": 50058, "name": "COSMOS 1408 DEB", "group": "cosmos-1408-debris", "lat": -59.35057442048738, "lon": 60.18119957320985, "alt_km": 394.78646706627296, "timestamp": "2025-12-09T09:46:47.915886+00:00", "meta": {"OBJECT_NAME": "COSMOS 1408 DEB", "OBJECT_ID": "1982-092SW", "EPOCH": "2025-12-08T07:55:44.645376", "MEAN_MOTION": 15.63709561, "ECCENTRICITY": 0.0016354, "INCLINATION": 82.6131, "RA_OF_ASC_NODE": 73.955, "ARG_OF_PERICENTER": 114.3465, "MEAN_ANOMALY": 245.9504, "EPHEMERIS_TYPE": 0, "CLASSIFICATION_TYPE": "U", "NORAD_CAT_ID": 50058, "ELEMENT_SET_NO": 999, "REV_AT_EPOCH": 22735, "BSTAR": 0.0004087218, "MEAN_MOTION_DOT": 0.00038485, "MEAN_MOTION_DDOT": 0}, "tle": {"line1": "1 50058U 82092SW  25342.33037784  .00038485  00000+0  40872-3 0  9991", "line2": "2 50058  82.6131  73.9550 0016354 114.3465 245.9504 15.63709561227354"}}, "geometry": {"type": "Point", "coordinates": [60.18119957320985, -59.35057442048738]}}, {"type": "Feature", "properties": {"norad_id": 50404, "name": "COSMOS 1408 DEB", "group": "cosmos-1408-debris", "lat": -61.82705389896103, "lon": -156.3799380014893, "alt_km": 525.3450222437805, "timestamp": "2025-12-09T09:46:47.915900+00:00", "meta": {"OBJECT_NAME": "COSMOS 1408 DEB", "OBJECT_ID": "1982-092ADS", "EPOCH": "2025-12-08T16:36:04.914720", "MEAN_MOTION": 15.1292564, "ECCENTRICITY": 0.01736051, "INCLINATION": 82.2033, "RA_OF_ASC_NODE": 219.1748, "ARG_OF_PERICENTER": 212.8662, "MEAN_ANOMALY": 146.1681, "EPHEMERIS_TYPE": 0, "CLASSIFICATION_TYPE": "U", "NORAD_CAT_ID": 50404, "ELEMENT_SET_NO": 999, "REV_AT_EPOCH": 21132, "BSTAR": 0.003399847, "MEAN_MOTION_DOT": 0.00087766, "MEAN_MOTION_DDOT": 0}, "tle": {"line1": "1 50404U 82092ADS 25342.69172355  .00087766  00000+0  33998-2 0  9995", "line2": "2 50404  82.2033 219.1748 0173605 212.8662 146.1681 15.12925640211325"}}, "geometry": {"type": "Point", "coordinates": [-156.3799380014893, -61.82705389896103]}}, {"type": "Feature", "properties": {"norad_id": 50621, "name": "COSMOS 1408 DEB", "group": "cosmos-1408-debris", "lat": 44.25354599872254, "lon": 84.95331502344682, "alt_km": 404.13735400607493, "timestamp": "2025-12-09T09:46:47.915912+00:00", "meta": {"OBJECT_NAME": "COSMOS 1408 DEB", "OBJECT_ID": "1982-092ALR", "EPOCH": "2025-12-08T18:09:24.571296", "MEAN_MOTION": 15.56343365, "ECCENTRICITY": 0.00288369, "INCLINATION": 82.5706, "RA_OF_ASC_NODE": 78.3265, "ARG_OF_PERICENTER": 167.0351, "MEAN_ANOMALY": 193.1653, "EPHEMERIS_TYPE": 0, "CLASSIFICATION_TYPE": "U", "NORAD_CAT_ID": 50621, "ELEMENT_SET_NO": 999, "REV_AT_EPOCH": 22188, "BSTAR": 0.00048240761, "MEAN_MOTION_DOT": 0.00034742, "MEAN_MOTION_DDOT": 0}, "tle": {"line1": "1 50621U 82092ALR 25342.75653439  .00034742  00000+0  48241-3 0  9994", "line2": "2 50621  82.5706  78.3265 0028836 167.0351 193.1653 15.56343365221885"}}, "geometry": {"type": "Point", "coordinates": [84.95331502344682, 44.25354599872254]}}]}